NORAD_CAT_ID,OBJECT_NAME,OBJECT_TYPE,EPOCH,MEAN_MOTION,ECCENTRICITY,INCLINATION,RA_OF_ASC_NODE,ARG_OF_PERICENTER,MEAN_ANOMALY,BSTAR,MEAN_MOTION_DOT,MEAN_MOTION_DDOT,TLE_LINE0,TLE_LINE1,TLE_LINE2,SEMIMAJOR_AXIS,PERIOD,APOGEE,PERIGEE,DECAYED
50159.0,STARLINK-3297,PAYLOAD,2023-06-21 21:11:15,15.08841132,9.6e-05,53.2183,31.5235,96.2413,263.8688,6.8854e-05,8.08e-06,0.0,0 STARLINK-3297,1 50159U 21125D   23172.88281357  .00000808  00000-0  68854-4 0  9999,2 50159  53.2183  31.5235 0000960  96.2413 263.8688 15.08841132 86720,6917.877,95.437,540.406,539.078,0.0
50159.0,STARLINK-3297,PAYLOAD,2023-06-22 19:26:38,15.08846091,0.0001083,53.218,27.3612,92.1664,267.9452,0.0001172,1.578e-05,0.0,0 STARLINK-3297,1 50159U 21125D   23173.81016958  .00001578  00000-0  11720-3 0  9990,2 50159  53.2180  27.3612 0001083  92.1664 267.9452 15.08846091 83325,6917.862,95.437,540.476,538.978,0.0
50159.0,STARLINK-3297,PAYLOAD,2023-06-23 17:42:03,15.0883873,0.0001017,53.2168,23.1986,98.6054,261.5054,3.2488e-05,2.29e-06,0.0,0 STARLINK-3297,1 50159U 21125D   23174.73753523  .00000229  00000-0  32488-4 0  9995,2 50159  53.2168  23.1986 0001017  98.6054 261.5054 15.08838730 83464,6917.884,95.438,540.453,539.046,0.0
50159.0,STARLINK-3297,PAYLOAD,2023-06-24 00:03:35,15.08847455,9.92e-05,53.2171,22.0102,94.073,266.0375,0.00014207,1.974e-05,0.0,0 STARLINK-3297,1 50159U 21125D   23175.00249095  .00001974  00000-0  14207-3 0  9996,2 50159  53.2171  22.0102 0000992  94.0730 266.0375 15.08847455 83503,6917.858,95.437,540.409,539.036,0.0
50159.0,STARLINK-3297,PAYLOAD,2023-06-24 06:25:07,15.08842943,0.0001001,53.2173,20.8197,89.7424,270.3683,0.00010046,1.312e-05,0.0,0 STARLINK-3297,1 50159U 21125D   23175.26745342  .00001312  00000-0  10046-3 0  9993,2 50159  53.2173  20.8197 0001001  89.7424 270.3683 15.08842943 83549,6917.871,95.437,540.429,539.044,0.0
50159.0,STARLINK-3297,PAYLOAD,2023-06-25 06:15:55,15.08839574,9.97e-05,53.2174,16.3603,90.3246,269.786,8.4618e-05,1.059e-05,0.0,0 STARLINK-3297,1 50159U 21125D   23176.26105553  .00001059  00000-0  84618-4 0  9993,2 50159  53.2174  16.3603 0000997  90.3246 269.7860 15.08839574 83696,6917.882,95.438,540.436,539.057,0.0
50159.0,STARLINK-3297,PAYLOAD,2023-06-26 06:06:42,15.08836407,0.0001008,53.2178,11.8982,91.5892,268.5215,1.346e-05,-7.4e-07,0.0,0 STARLINK-3297,1 50159U 21125D   23177.25465957 -.00000074  00000-0  13460-4 0  9994,2 50159  53.2178  11.8982 0001008  91.5892 268.5215 15.08836407 83844,6917.891,95.438,540.454,539.059,0.0
50159.0,STARLINK-3297,PAYLOAD,2023-06-27 20:15:57,15.08848285,9.5e-05,53.2179,4.7636,92.325,267.7851,0.0001055,1.392e-05,0.0,0 STARLINK-3297,1 50159U 21125D   23178.84441699  .00001392  00000-0  10550-3 0  9996,2 50159  53.2179   4.7636 0000950  92.3250 267.7851 15.08848285 84085,6917.855,95.437,540.377,539.063,0.0
50159.0,STARLINK-3297,PAYLOAD,2023-06-28 05:48:16,15.08843255,9.87e-05,53.2172,2.9796,89.2733,270.8372,9.1035e-05,1.161e-05,0.0,0 STARLINK-3297,1 50159U 21125D   23179.24185977  .00001161  00000-0  91035-4 0  9997,2 50159  53.2172   2.9796 0000987  89.2733 270.8372 15.08843255 84148,6917.87,95.437,540.418,539.053,0.0
50159.0,STARLINK-3297,PAYLOAD,2023-06-29 18:22:09,15.08841358,0.0001064,53.2186,356.1409,90.1513,269.9601,1.762e-05,-7e-08,0.0,0 STARLINK-3297,1 50159U 21125D   23180.76538298 -.00000007  00000-0  17620-4 0  9991,2 50159  53.2186 356.1409 0001064  90.1513 269.9601 15.08841358 84373,6917.876,95.437,540.477,539.005,0.0
50159.0,STARLINK-3297,PAYLOAD,2023-07-01 03:45:15,15.088396,9.99e-05,53.2184,349.8964,86.3884,273.7223,8.8228e-06,-1.47e-06,0.0,0 STARLINK-3297,1 50159U 21125D   23182.15642364 -.00000147  00000-0  88228-5 0  9994,2 50159  53.2184 349.8964 0000999  86.3884 273.7223 15.08839600 84583,6917.882,95.438,540.438,539.056,0.0
50159.0,STARLINK-3297,PAYLOAD,2023-07-02 14:43:44,15.0884015,9.42e-05,53.2188,343.3555,96.0931,264.0168,3.3452e-05,2.45e-06,0.0,0 STARLINK-3297,1 50159U 21125D   23183.61370519  .00000245  00000-0  33452-4 0  9992,2 50159  53.2188 343.3555 0000942  96.0931 264.0168 15.08840150 84809,6917.88,95.438,540.397,539.093,0.0
50159.0,STARLINK-3297,PAYLOAD,2023-07-02 21:05:16,15.08846405,9.3e-05,53.2182,342.1643,91.7182,268.3917,8.4696e-05,1.061e-05,0.0,0 STARLINK-3297,1 50159U 21125D   23183.87865963  .00001061  00000-0  84696-4 0  9995,2 50159  53.2182 342.1643 0000930  91.7182 268.3917 15.08846405 84847,6917.861,95.437,540.369,539.082,0.0
50159.0,STARLINK-3297,PAYLOAD,2023-07-03 11:23:44,15.08836266,8.37e-05,53.2174,339.487,96.5408,263.5679,7.0335e-05,8.32e-06,0.0,0 STARLINK-3297,1 50159U 21125D   23184.47482615  .00000832  00000-0  70335-4 0  9991,2 50159  53.2174 339.4870 0000837  96.5408 263.5679 15.08836266 84935,6917.892,95.438,540.336,539.178,0.0
50159.0,STARLINK-3297,PAYLOAD,2023-07-03 17:45:17,15.0884401,9.08e-05,53.2186,338.2991,89.0831,271.0265,0.00011029,1.468e-05,0.0,0 STARLINK-3297,1 50159U 21125D   23184.73978065  .00001468  00000-0  11029-3 0  9999,2 50159  53.2186 338.2991 0000908  89.0831 271.0265 15.08844010 84970,6917.868,95.437,540.361,539.105,0.0
50159.0,STARLINK-3297,PAYLOAD,2023-07-04 11:14:32,15.08836444,0.0001152,53.2193,335.0279,107.3409,252.7709,4.5091e-05,4.3e-06,0.0,0 STARLINK-3297,1 50159U 21125D   23185.46842748  .00000430  00000-0  45091-4 0  9993,2 50159  53.2193 335.0279 0001152 107.3409 252.7709 15.08836444 85083,6917.891,95.438,540.553,538.959,0.0
50159.0,STARLINK-3297,PAYLOAD,2023-07-05 19:02:14,15.08841319,8.68e-05,53.2176,329.0794,94.2066,265.9025,6.2827e-06,-1.88e-06,0.0,0 STARLINK-3297,1 50159U 21125D   23186.79322736 -.00000188  00000-0  62827-5 0  9998,2 50159  53.2176 329.0794 0000868  94.2066 265.9025 15.08841319 85281,6917.876,95.437,540.342,539.141,0.0
50159.0,STARLINK-3297,PAYLOAD,2023-07-07 09:11:30,15.0883135,9.06e-05,53.2176,321.9435,87.9612,272.1484,0.00018561,2.667e-05,0.0,0 STARLINK-3297,1 50159U 21125D   23188.38298956  .00002667  00000-0  18561-3 0  9998,2 50159  53.2176 321.9435 0000906  87.9612 272.1484 15.08831350 85523,6917.907,95.438,540.399,539.145,0.0
50159.0,STARLINK-3297,PAYLOAD,2023-07-07 15:33:02,15.08844529,8.98e-05,53.2183,320.7542,87.2885,272.821,4.8544e-05,4.85e-06,0.0,0 STARLINK-3297,1 50159U 21125D   23188.64794475  .00000485  00000-0  48544-4 0  9995,2 50159  53.2183 320.7542 0000898  87.2885 272.8210 15.08844529 85562,6917.867,95.437,540.353,539.11,0.0
50159.0,STARLINK-3297,PAYLOAD,2023-07-08 09:02:17,15.08836304,8.58e-05,53.2196,317.484,111.7831,248.3253,7.2584e-05,8.68e-06,0.0,0 STARLINK-3297,1 50159U 21125D   23189.37658723  .00000868  00000-0  72584-4 0  9997,2 50159  53.2196 317.4840 0000858 111.7831 248.3253 15.08836304 85679,6917.892,95.438,540.35,539.163,0.0
50159.0,STARLINK-3297,PAYLOAD,2023-07-09 12:03:51,15.0882739,8.2e-05,53.2187,312.4298,94.4543,265.6543,-5.6616e-05,-1.188e-05,0.0,0 STARLINK-3297,1 50159U 21125D   23190.50267934 -.00001188  00000-0 -56616-4 0  9990,2 50159  53.2187 312.4298 0000820  94.4543 265.6543 15.08827390 85845,6917.919,95.438,540.351,539.217,0.0
50159.0,STARLINK-3297,PAYLOAD,2023-07-10 00:46:55,15.08848047,0.0001417,53.2199,310.0517,140.2725,219.8371,-0.00011521,-2.121e-05,0.0,0 STARLINK-3297,1 50159U 21125D   23191.03258754 -.00002121  00000-0 -11521-3 0  9992,2 50159  53.2199 310.0517 0001417 140.2725 219.8371 15.08848047 85922,6917.856,95.437,540.701,538.741,0.0
50159.0,STARLINK-3297,PAYLOAD,2023-07-11 08:34:39,15.08824045,8.28e-05,53.2182,304.1028,85.5721,274.5366,4.1544e-05,3.73e-06,0.0,0 STARLINK-3297,1 50159U 21125D   23192.35739952  .00000373  00000-0  41544-4 0  9996,2 50159  53.2182 304.1028 0000828  85.5721 274.5366 15.08824045 86124,6917.929,95.439,540.367,539.221,0.0
50159.0,STARLINK-3297,PAYLOAD,2023-07-12 00:28:30,15.08835897,8.72e-05,53.2185,301.1291,80.9104,279.1987,4.1278e-05,3.69e-06,0.0,0 STARLINK-3297,1 50159U 21125D   23193.01979632  .00000369  00000-0  41278-4 0  9990,2 50159  53.2185 301.1291 0000872  80.9104 279.1987 15.08835897 86227,6917.893,95.438,540.361,539.155,0.0
50159.0,STARLINK-3297,PAYLOAD,2023-07-12 13:11:35,15.08845249,9.31e-05,53.219,298.751,83.9622,276.1476,1.5292e-05,-4.4e-07,0.0,0 STARLINK-3297,1 50159U 21125D   23193.54971175 -.00000044  00000-0  15292-4 0  9990,2 50159  53.2190 298.7510 0000931  83.9622 276.1476 15.08845249 86303,6917.864,95.437,540.373,539.085,0.0
50159.0,STARLINK-3297,PAYLOAD,2023-07-13 13:02:20,15.08899446,7.04e-05,53.2183,294.2913,63.4748,296.6316,-0.00085786,-0.00013936,0.0,0 STARLINK-3297,1 50159U 21125D   23194.54329606 -.00013936  00000-0 -85786-3 0  9996,2 50159  53.2183 294.2913 0000704  63.4748 296.6316 15.08899446 86457,6917.699,95.434,540.051,539.077,0.0
50159.0,STARLINK-3297,PAYLOAD,2023-07-14 12:53:09,15.08845944,0.0001099,53.2181,289.831,72.4473,287.6639,0.00012556,1.711e-05,0.0,0 STARLINK-3297,1 50159U 21125D   23195.53691214  .00001711  00000-0  12556-3 0  9994,2 50159  53.2181 289.8310 0001099  72.4473 287.6639 15.08845944 86608,6917.862,95.437,540.487,538.967,0.0
50159.0,STARLINK-3297,PAYLOAD,2023-07-15 11:08:33,15.08839547,0.0001042,53.2174,285.6679,70.3428,289.7677,9.3205e-05,1.196e-05,0.0,0 STARLINK-3297,1 50159U 21125D   23196.46427599  .00001196  00000-0  93205-4 0  9998,2 50159  53.2174 285.6679 0001042  70.3428 289.7677 15.08839547 86749,6917.882,95.438,540.468,539.026,0.0
50159.0,STARLINK-3297,PAYLOAD,2023-07-16 06:13:12,15.08821711,0.0001098,53.219,282.101,86.0017,274.11,0.00013778,1.905e-05,0.0,0 STARLINK-3297,1 50159U 21125D   23197.25916703  .00001905  00000-0  13778-3 0  9990,2 50159  53.2190 282.1010 0001098  86.0017 274.1100 15.08821711 86863,6917.936,95.439,540.561,539.042,0.0
50159.0,STARLINK-3297,PAYLOAD,2023-07-16 15:45:30,15.08837171,9.42e-05,53.2169,280.3139,92.0052,268.1048,-7.3992e-06,-4.05e-06,0.0,0 STARLINK-3297,1 50159U 21125D   23197.65660126 -.00000405  00000-0 -73992-5 0  9991,2 50159  53.2169 280.3139 0000942  92.0052 268.1048 15.08837171 86922,6917.889,95.438,540.406,539.102,0.0
